CORVUS BC4              
1 43767U 18099K   26189.35767989  .00002105  00000+0  12398-3 0  9997
2 43767  97.4057 231.7187 0006519 290.8710  69.1823 15.12666135415609
M2 PATHFINDER           
1 45727U 20037E   26189.26007660  .00001464  00000+0  10818-3 0  9995
2 45727  97.8158  20.7297 0013306  83.6025 276.6715 15.04776125328666
NETSAT-4                
1 46504U 20068U   26188.92562277  .00011568  00000+0  25088-3 0  9996
2 46504  97.8609 198.8425 0003859 224.2635 135.8304 15.44579365318977
NETSAT-3                
1 46505U 20068V   26188.94760406  .00011486  00000+0  25898-3 0  9991
2 46505  97.8657 197.0573 0003106 246.5118 113.5802 15.43427557318884
NETSAT-1                
1 46506U 20068W   26189.45362568  .00007565  00000+0  22444-3 0  9993
2 46506  97.8754 191.6806 0002545 304.7328  55.3674 15.35138736318562
NETSAT-2                
1 46507U 20068X   26189.58253790  .00017118  00000+0  34129-3 0  9992
2 46507  97.8621 199.5288 0001448 248.0784 112.0310 15.46954649319047
GREENCUBE (IO-117)      
1 53109U 22080E   26189.19521522 -.00000003  00000+0  00000+0 0  9995
2 53109  70.1427 290.9400 0009007 285.1341  74.8322  6.42583247 93419
SITRO-AIS 5 (KATYS)     
1 57176U 23091L   26189.52590633  .00008490  00000+0  29479-3 0  9994
2 57176  97.5049 253.6337 0011373  35.5393 324.6602 15.29962558167609
SITRO-AIS 6 (CHIRKIN)   
1 57192U 23091AC  26189.55463349  .00006611  00000+0  25676-3 0  9996
2 57192  97.5056 252.6671 0011858  38.9641 321.2449 15.26354215167543
SITRO-AIS 8 (ANOKHIN)   
1 57193U 23091AD  26189.57031267  .00009511  00000+0  30286-3 0  9994
2 57193  97.5045 255.3557 0010192  31.3584 328.8263 15.32737358167725
SITRO-AIS 7 (FARTUSHNIY)
1 57194U 23091AE  26189.56221626  .00006364  00000+0  24970-3 0  9990
2 57194  97.5053 252.4885 0011817  40.0850 320.1258 15.26031640167537
SITRO-AIS 10 (BURDAEV)  
1 57199U 23091AK  26189.57539552  .00014617  00000+0  37476-3 0  9991
2 57199  97.5069 260.6396 0005483   8.2969 351.8366 15.39450559168053
SITRO-AIS 9 (SHCHUKIN)  
1 57201U 23091AM  26189.54370986  .00015024  00000+0  39155-3 0  9995
2 57201  97.5067 260.3202 0005771   8.4150 351.7190 15.38940261168037
SITRO-AIS 12 (SMIRENNIY)
1 57204U 23091AQ  26189.53026739  .00013773  00000+0  35585-3 0  9993
2 57204  97.5080 260.7869 0005275   2.2859 357.8410 15.39231201168057
SITRO-AIS 11 (SHEFFER)  
1 57208U 23091AU  26189.53769795  .00014956  00000+0  38063-3 0  9991
2 57208  97.5078 261.0548 0005181   1.8354 358.2910 15.39673713168077
SITRO-AIS 25            
1 59066U 24039R   26189.54725946  .00001806  00000+0  14296-3 0  9991
2 59066  95.3896 249.7709 0142398 253.0829 105.4745 14.93617975127910
SITRO-AIS 26            
1 59067U 24039S   26189.55156831  .00001732  00000+0  13793-3 0  9993
2 59067  95.3897 249.6670 0142731 253.6778 104.8711 14.93410060127909
SITRO-AIS 27            
1 59068U 24039T   26189.58279312  .00002269  00000+0  17812-3 0  9999
2 59068  95.3902 249.9703 0141826 252.1015 106.4703 14.93833906127939
SITRO-AIS 28            
1 59071U 24039U   26189.55975262  .00001874  00000+0  14758-3 0  9994
2 59071  95.3901 250.0028 0141693 252.0213 106.5526 14.93866850127934
GRBBETA                 
1 60237U 24128C   26189.45698128  .00002146  00000+0  15585-3 0  9993
2 60237  61.9890 141.6327 0037860 139.2151 221.1788 15.06777502109473
OOV-CUBE (TUBSAT-30)    
1 60240U 24128F   26189.34741513  .00001256  00000+0  10730-3 0  9990
2 60240  61.9938 151.7829 0042004 138.3639 222.0664 15.02855291109297
ROBUSTA-3A (MEDITERRAN*)
1 60243U 24128J   26189.43271700  .00004431  00000+0  26585-3 0  9992
2 60243  61.9854 133.0989 0038758 132.5275 227.9104 15.11920370109632
LASARSAT                
1 62391U 24247Q   26189.28520712  .00024459  00000+0  46747-3 0  9997
2 62391  44.9723 143.5419 0006541 116.5251 243.6311 15.47699738 86582
CROCUBE                 
1 62394U 24247T   26186.35536948  .00062671  00000+0  11046-2 0  9994
2 62394  44.9708 157.0633 0006223  99.0627 261.0968 15.49608608 86169
FORESAIL-1 PRIME        
1 66778U 25276DS  26189.47464720  .00003188  00000+0  15602-3 0  9992
2 66778  97.4190 262.3575 0003365  59.2491 300.9075 15.18899368 33630
KNACKSAT-2              
1 67683U 98067XZ  26189.28582417  .00035828  00000+0  40782-3 0  9992
2 67683  51.6260 188.2015 0008208 303.7179  56.3032 15.61884949 23576
