OBJECT_NAME,OBJECT_ID,EPOCH,MEAN_MOTION,ECCENTRICITY,INCLINATION,RA_OF_ASC_NODE,ARG_OF_PERICENTER,MEAN_ANOMALY,EPHEMERIS_TYPE,CLASSIFICATION_TYPE,NORAD_CAT_ID,ELEMENT_SET_NO,REV_AT_EPOCH,BSTAR,MEAN_MOTION_DOT,MEAN_MOTION_DDOT
CORVUS BC4,2018-099K,2026-07-08T08:35:03.542496,15.12666135,.00065199,97.4057,231.7187,290.8710,69.1823,0,U,43767,999,41560,.12397632E-3,.2105E-4,0
M2 PATHFINDER,2020-037E,2026-07-08T06:14:30.618240,15.04776125,.00133067,97.8158,20.7297,83.6025,276.6715,0,U,45727,999,32866,.10818132E-3,.1464E-4,0
NETSAT-4,2020-068U,2026-07-07T22:12:53.807328,15.44579365,.00038597,97.8609,198.8425,224.2635,135.8304,0,U,46504,999,31897,.25087548E-3,.11568E-3,0
NETSAT-3,2020-068V,2026-07-07T22:44:32.990784,15.43427557,.00031068,97.8657,197.0573,246.5118,113.5802,0,U,46505,999,31888,.25897788E-3,.11486E-3,0
NETSAT-1,2020-068W,2026-07-08T10:53:13.258752,15.35138736,.00025454,97.8754,191.6806,304.7328,55.3674,0,U,46506,999,31856,.22443752E-3,.7565E-4,0
NETSAT-2,2020-068X,2026-07-08T13:58:51.274560,15.46954649,.00014483,97.8621,199.5288,248.0784,112.0310,0,U,46507,999,31904,.34129335E-3,.17118E-3,0
GREENCUBE (IO-117),2022-080E,2026-07-08T04:41:06.595008,6.42583247,.00090072,70.1427,290.9400,285.1341,74.8322,0,U,53109,999,9341,0,-.3E-7,0
SITRO-AIS 5 (KATYS),2023-091L,2026-07-08T12:37:18.306912,15.29962558,.00113735,97.5049,253.6337,35.5393,324.6602,0,U,57176,999,16760,.29479037E-3,.849E-4,0
SITRO-AIS 6 (CHIRKIN),2023-091AC,2026-07-08T13:18:40.333536,15.26354215,.00118582,97.5056,252.6671,38.9641,321.2449,0,U,57192,999,16754,.25675885E-3,.6611E-4,0
SITRO-AIS 8 (ANOKHIN),2023-091AD,2026-07-08T13:41:15.014688,15.32737358,.00101928,97.5045,255.3557,31.3584,328.8263,0,U,57193,999,16772,.30286306E-3,.9511E-4,0
SITRO-AIS 7 (FARTUSHNIY),2023-091AE,2026-07-08T13:29:35.484864,15.26031640,.0011817,97.5053,252.4885,40.0850,320.1258,0,U,57194,999,16753,.24969575E-3,.6364E-4,0
SITRO-AIS 10 (BURDAEV),2023-091AK,2026-07-08T13:48:34.172928,15.39450559,.00054831,97.5069,260.6396,8.2969,351.8366,0,U,57199,999,16805,.37475723E-3,.14617E-3,0
SITRO-AIS 9 (SHCHUKIN),2023-091AM,2026-07-08T13:02:56.531904,15.38940261,.0005771,97.5067,260.3202,8.4150,351.7190,0,U,57201,999,16803,.39154583E-3,.15024E-3,0
SITRO-AIS 12 (SMIRENNIY),2023-091AQ,2026-07-08T12:43:35.102496,15.39231201,.00052756,97.5080,260.7869,2.2859,357.8410,0,U,57204,999,16805,.35584659E-3,.13773E-3,0
SITRO-AIS 11 (SHEFFER),2023-091AU,2026-07-08T12:54:17.102880,15.39673713,.00051813,97.5078,261.0548,1.8354,358.2910,0,U,57208,999,16807,.38063143E-3,.14956E-3,0
SITRO-AIS 25,2024-039R,2026-07-08T13:08:03.217344,14.93617975,.01423985,95.3896,249.7709,253.0829,105.4745,0,U,59066,999,12791,.14295911E-3,.1806E-4,0
SITRO-AIS 26,2024-039S,2026-07-08T13:14:15.501984,14.93410060,.01427317,95.3897,249.6670,253.6778,104.8711,0,U,59067,999,12790,.13793212E-3,.1732E-4,0
SITRO-AIS 27,2024-039T,2026-07-08T13:59:13.325568,14.93833906,.01418268,95.3902,249.9703,252.1015,106.4703,0,U,59068,999,12793,.17811643E-3,.2269E-4,0
SITRO-AIS 28,2024-039U,2026-07-08T13:26:02.626368,14.93866850,.01416939,95.3901,250.0028,252.0213,106.5526,0,U,59071,999,12793,.14758255E-3,.1874E-4,0
GRBBETA,2024-128C,2026-07-08T10:58:03.182592,15.06777502,.00378601,61.9890,141.6327,139.2151,221.1788,0,U,60237,999,10947,.15584721E-3,.2146E-4,0
OOV-CUBE (TUBSAT-30),2024-128F,2026-07-08T08:20:16.667232,15.02855291,.00420044,61.9938,151.7829,138.3639,222.0664,0,U,60240,999,10929,.10730122E-3,.1256E-4,0
ROBUSTA-3A (MEDITERRANEE),2024-128J,2026-07-08T10:23:06.748800,15.11920370,.0038758,61.9854,133.0989,132.5275,227.9104,0,U,60243,999,10963,.26584934E-3,.4431E-4,0
LASARSAT,2024-247Q,2026-07-08T06:50:41.895168,15.47699738,.00065418,44.9723,143.5419,116.5251,243.6311,0,U,62391,999,8658,.46746582E-3,.24459E-3,0
CROCUBE,2024-247T,2026-07-05T08:31:43.923072,15.49608608,.0006223,44.9708,157.0633,99.0627,261.0968,0,U,62394,999,8616,.11046E-2,.62671E-3,0
FORESAIL-1 PRIME,2025-276DS,2026-07-08T11:23:29.518080,15.18899368,.00033651,97.4190,262.3575,59.2491,300.9075,0,U,66778,999,3363,.15602064E-3,.3188E-4,0
KNACKSAT-2,1998-067XZ,2026-07-08T06:51:35.208288,15.61884949,.00082087,51.6260,188.2015,303.7179,56.3032,0,U,67683,999,2357,.40782476E-3,.35828E-3,0
